[{"OBJECT_NAME":"ION SCV-010","OBJECT_ID":"2023-054Q","EPOCH":"2026-03-09T16:02:35.904768","MEAN_MOTION":15.25210322,"ECCENTRICITY":0.00127052,"INCLINATION":97.3904,"RA_OF_ASC_NODE":319.4312,"ARG_OF_PERICENTER":188.785,"MEAN_ANOMALY":171.3168,"EPHEMERIS_TYPE":0,"CLASSIFICATION_TYPE":"U","NORAD_CAT_ID":56192,"ELEMENT_SET_NO":999,"REV_AT_EPOCH":16102,"BSTAR":0.00025045068,"MEAN_MOTION_DOT":6.231e-5,"MEAN_MOTION_DDOT":0},{"OBJECT_NAME":"STARLINK-32089","OBJECT_ID":"2024-086F","EPOCH":"2026-03-09T22:43:41.097216","MEAN_MOTION":15.27576657,"ECCENTRICITY":6.181e-5,"INCLINATION":43.0023,"RA_OF_ASC_NODE":58.2597,"ARG_OF_PERICENTER":216.623,"MEAN_ANOMALY":143.458,"EPHEMERIS_TYPE":0,"CLASSIFICATION_TYPE":"U","NORAD_CAT_ID":59687,"ELEMENT_SET_NO":999,"REV_AT_EPOCH":10415,"BSTAR":-3.0076399e-5,"MEAN_MOTION_DOT":-1.089e-5,"MEAN_MOTION_DDOT":0}]
